# TLEs retrieved from www.space-track.org
# Copy from https://www.space-track.org/basicspacedata/query/class/tle_latest/NORAD_CAT_ID/58928U,25544U,25994U,27424U,28376U,29107U,29108U,37849U,42063U,40697U,43613U/EPOCH/%3Enow-10/ORDINAL/1/orderby/EPOCH%20desc/limit/12/format/3le/metadata/false
# retrieved on 2024-05-08
0 EARTHCARE
1 70101U 00000    23131.00000000 +.00000000 +00000-0 +50399-5 0 03646
2 70101 097.0284 159.9280 0001880 092.0225 305.2424 15.57036038056809
0 NPP
1 37849U 11061A   24129.85365018  .00000161  00000-0  96858-4 0  9992
2 37849  98.7205  68.4272 0001543  66.5579 293.5759 14.19560899649285
0 SENTINEL 2A
1 40697U 15028A   24129.80194485  .00000268  00000-0  11876-3 0  9991
2 40697  98.5692 204.6298 0001030  96.0699 264.0602 14.30821185463715
0 TERRA
1 25994U 99068A   24129.62496059  .00000832  00000-0  18378-3 0  9993
2 25994  98.0502 194.2720 0003291 114.7965  42.8795 14.59718024297271
0 AQUA
1 27424U 02022A   24129.61527958  .00001592  00000-0  34767-3 0  9993
2 27424  98.3282  78.8455 0000884 103.3792  10.6283 14.59206087170904
0 AURA
1 28376U 04026A   24129.58258131  .00001562  00000-0  34640-3 0  9993
2 28376  98.2490  74.7013 0001379 110.6924 249.4423 14.58496569 53907
0 ICESAT-2
1 43613U 18070A   24129.58180310  .00018172  00000-0  66163-3 0  9991
2 43613  92.0004  83.9763 0003064 183.9454 176.1772 15.28158429314922
0 CLOUDSAT
1 29107U 06016A   24129.56209769  .00002751  00000-0  35158-3 0  9994
2 29107  98.4066 113.1611 0004298 304.4432  55.6373 14.82287929960456
0 CALIPSO
1 29108U 06016B   24129.55850054  .00002002  00000-0  37818-3 0  9997
2 29108  98.4170 110.4529 0001560  96.4750 263.6630 14.65585564960141
0 SENTINEL 2B
1 42063U 17013A   24129.55717027  .00000257  00000-0  11468-3 0  9996
2 42063  98.5698 204.3805 0001139  97.7440 262.3872 14.30818158374585
0 ISS (ZARYA)
1 25544U 98067A   24129.52995340  .00016549  00000-0  28684-3 0  9991
2 25544  51.6388 152.0135 0003587 145.1497 347.5297 15.51017554452398
0 PACE
1 58928U 24025A   24129.52799116  .00000977  00000-0  18936-3 0  9996
2 58928  98.0939  61.7087 0002002  84.0809 276.0623 14.65443560 13215
0 PACE-old
1 58928U 24025A   24100.57665687  .00000790  00000-0  15511-3 0  9994
2 58928  98.0915  33.2046 0001579 103.8916 256.2463 14.65355610  8972
0 PACE-older
1 58928U 24025A   24070.80430593  .00000887  00000-0  17326-3 0  9995
2 58928  98.0892   3.9054 0000917  86.6629 273.4679 14.65285655  4611
0 PREFIRE/TERRASAR-X              
1 31698U 07026A   24134.52693668  .00005615  00000+0  27048-3 0  9991
2 31698  97.4456 142.1707 0001817  88.4960 271.6483 15.19139977937796